{"type": "FeatureCollection", "features": [ {"type": "Feature", "properties": {"norad_id": 44622, "name": "GAOFEN-10R", "group": "resource", "lat": -81.95486314955713, "lon": 25.154456826121358, "alt_km": 632.1151675085639, "timestamp": "2025-12-10T11:33:53.049116+00:00", "meta": {"OBJECT_NAME": "GAOFEN-10R", "OBJECT_ID": "2019-066A", "EPOCH": "2025-12-10T03:52:27.747264", "MEAN_MOTION": 14.82777783, "ECCENTRICITY": 0.0007993, "INCLINATION": 98.0276, "RA_OF_ASC_NODE": 291.6576, "ARG_OF_PERICENTER": 49.2396, "MEAN_ANOMALY": 310.9509, "EPHEMERIS_TYPE": 0, "CLASSIFICATION_TYPE": "U", "NORAD_CAT_ID": 44622, "ELEMENT_SET_NO": 999, "REV_AT_EPOCH": 33436, "BSTAR": 0.00032252, "MEAN_MOTION_DOT": 2.554e-05, "MEAN_MOTION_DDOT": 0}, "tle": {"line1": "1 44622U 19066A   25344.16143226  .00002554  00000+0  32252-3 0  9995", "line2": "2 44622  98.0276 291.6576 0007993  49.2396 310.9509 14.82777783334369"}}, "geometry": {"type": "Point", "coordinates": [25.154456826121358, -81.95486314955713]}}, {"type": "Feature", "properties": {"norad_id": 44804, "name": "CARTOSAT-3", "group": "resource", "lat": 42.279457297561024, "lon": -129.06551478735884, "alt_km": 497.48517634104064, "timestamp": "2025-12-10T11:33:53.049126+00:00", "meta": {"OBJECT_NAME": "CARTOSAT-3", "OBJECT_ID": "2019-081A", "EPOCH": "2025-12-10T04:38:29.455872", "MEAN_MOTION": 15.19334089, "ECCENTRICITY": 0.0013907, "INCLINATION": 97.4578, "RA_OF_ASC_NODE": 43.8089, "ARG_OF_PERICENTER": 94.8152, "MEAN_ANOMALY": 265.4671, "EPHEMERIS_TYPE": 0, "CLASSIFICATION_TYPE": "U", "NORAD_CAT_ID": 44804, "ELEMENT_SET_NO": 999, "REV_AT_EPOCH": 33477, "BSTAR": 0.00024385, "MEAN_MOTION_DOT": 5.096e-05, "MEAN_MOTION_DDOT": 0}, "tle": {"line1": "1 44804U 19081A   25344.19339648  .00005096  00000+0  24385-3 0  9994", "line2": "2 44804  97.4578  43.8089 0013907  94.8152 265.4671 15.19334089334771"}}, "geometry": {"type": "Point", "coordinates": [-129.06551478735884, 42.279457297561024]}}, {"type": "Feature", "properties": {"norad_id": 44819, "name": "GAOFEN-12 01", "group": "resource", "lat": -13.955851284283028, "lon": 168.86672506102587, "alt_km": 631.4296936912306, "timestamp": "2025-12-10T11:33:53.049137+00:00", "meta": {"OBJECT_NAME": "GAOFEN-12 01", "OBJECT_ID": "2019-082A", "EPOCH": "2025-12-10T04:12:13.321152", "MEAN_MOTION": 14.80652395, "ECCENTRICITY": 0.0001211, "INCLINATION": 97.8127, "RA_OF_ASC_NODE": 350.5234, "ARG_OF_PERICENTER": 250.419, "MEAN_ANOMALY": 109.6892, "EPHEMERIS_TYPE": 0, "CLASSIFICATION_TYPE": "U", "NORAD_CAT_ID": 44819, "ELEMENT_SET_NO": 999, "REV_AT_EPOCH": 32612, "BSTAR": 0.00010971, "MEAN_MOTION_DOT": 7.92e-06, "MEAN_MOTION_DDOT": 0}, "tle": {"line1": "1 44819U 19082A   25344.17515418  .00000792  00000+0  10971-3 0  9994", "line2": "2 44819  97.8127 350.5234 0001211 250.4190 109.6892 14.80652395326122"}}, "geometry": {"type": "Point", "coordinates": [168.86672506102587, -13.955851284283028]}}, {"type": "Feature", "properties": {"norad_id": 44873, "name": "CSG-1", "group": "resource", "lat": -66.11559993658294, "lon": -175.9311435787248, "alt_km": 630.6532124798478, "timestamp": "2025-12-10T11:33:53.049147+00:00", "meta": {"OBJECT_NAME": "CSG-1", "OBJECT_ID": "2019-092A", "EPOCH": "2025-12-10T03:46:01.612704", "MEAN_MOTION": 14.82158357, "ECCENTRICITY": 0.0001451, "INCLINATION": 97.8811, "RA_OF_ASC_NODE": 165.52, "ARG_OF_PERICENTER": 85.2022, "MEAN_ANOMALY": 274.9356, "EPHEMERIS_TYPE": 0, "CLASSIFICATION_TYPE": "U", "NORAD_CAT_ID": 44873, "ELEMENT_SET_NO": 999, "REV_AT_EPOCH": 32347, "BSTAR": 0.00013069, "MEAN_MOTION_DOT": 9.88e-06, "MEAN_MOTION_DDOT": 0}, "tle": {"line1": "1 44873U 19092A   25344.15696311  .00000988  00000+0  13069-3 0  9993", "line2": "2 44873  97.8811 165.5200 0001451  85.2022 274.9356 14.82158357323470"}}, "geometry": {"type": "Point", "coordinates": [-175.9311435787248, -66.11559993658294]}}, {"type": "Feature", "properties": {"norad_id": 46277, "name": "NEMO-HD", "group": "resource", "lat": -20.196979181093678, "lon": 46.28164787321991, "alt_km": 450.4144553106271, "timestamp": "2025-12-10T11:33:53.049157+00:00", "meta": {"OBJECT_NAME": "NEMO-HD", "OBJECT_ID": "2020-061F", "EPOCH": "2025-12-10T03:51:24.786720", "MEAN_MOTION": 15.40240297, "ECCENTRICITY": 0.0002043, "INCLINATION": 97.221, "RA_OF_ASC_NODE": 43.2912, "ARG_OF_PERICENTER": 59.387, "MEAN_ANOMALY": 300.7578, "EPHEMERIS_TYPE": 0, "CLASSIFICATION_TYPE": "U", "NORAD_CAT_ID": 46277, "ELEMENT_SET_NO": 999, "REV_AT_EPOCH": 29284, "BSTAR": 0.00036153, "MEAN_MOTION_DOT": 0.00014467, "MEAN_MOTION_DDOT": 0}, "tle": {"line1": "1 46277U 20061F   25344.16070355  .00014467  00000+0  36153-3 0  9992", "line2": "2 46277  97.2210  43.2912 0002043  59.3870 300.7578 15.40240297292840"}}, "geometry": {"type": "Point", "coordinates": [46.28164787321991, -20.196979181093678]}}, {"type": "Feature", "properties": {"norad_id": 46984, "name": "SENTINEL-6A", "group": "resource", "lat": 45.81226257561934, "lon": -40.22438940119822, "alt_km": 1337.427139891046, "timestamp": "2025-12-10T11:33:53.049168+00:00", "meta": {"OBJECT_NAME": "SENTINEL-6A", "OBJECT_ID": "2020-086A", "EPOCH": "2025-12-09T23:39:14.637312", "MEAN_MOTION": 12.8093052, "ECCENTRICITY": 0.000773, "INCLINATION": 66.0391, "RA_OF_ASC_NODE": 168.0287, "ARG_OF_PERICENTER": 269.1798, "MEAN_ANOMALY": 90.8331, "EPHEMERIS_TYPE": 0, "CLASSIFICATION_TYPE": "U", "NORAD_CAT_ID": 46984, "ELEMENT_SET_NO": 999, "REV_AT_EPOCH": 23609, "BSTAR": 6.6173e-05, "MEAN_MOTION_DOT": -4.6e-07, "MEAN_MOTION_DDOT": 0}, "tle": {"line1": "1 46984U 20086A   25343.98558608 -.00000046  00000+0  66173-4 0  9990", "line2": "2 46984  66.0391 168.0287 0007730 269.1798  90.8331 12.80930520236093"}}, "geometry": {"type": "Point", "coordinates": [-40.22438940119822, 45.81226257561934]}}, {"type": "Feature", "properties": {"norad_id": 48079, "name": "GAOFEN-12 02", "group": "resource", "lat": -24.986144339138054, "lon": 154.748552224787, "alt_km": 633.2533228126022, "timestamp": "2025-12-10T11:33:53.049178+00:00", "meta": {"OBJECT_NAME": "GAOFEN-12 02", "OBJECT_ID": "2021-026A", "EPOCH": "2025-12-10T04:09:14.284800", "MEAN_MOTION": 14.80670011, "ECCENTRICITY": 0.0003481, "INCLINATION": 97.9851, "RA_OF_ASC_NODE": 338.1919, "ARG_OF_PERICENTER": 106.0972, "MEAN_ANOMALY": 254.0623, "EPHEMERIS_TYPE": 0, "CLASSIFICATION_TYPE": "U", "NORAD_CAT_ID": 48079, "ELEMENT_SET_NO": 999, "REV_AT_EPOCH": 25379, "BSTAR": 0.0001147, "MEAN_MOTION_DOT": 8.29e-06, "MEAN_MOTION_DDOT": 0}, "tle": {"line1": "1 48079U 21026A   25344.17308200  .00000829  00000+0  11470-3 0  9992", "line2": "2 48079  97.9851 338.1919 0003481 106.0972 254.0623 14.80670011253790"}}, "geometry": {"type": "Point", "coordinates": [154.748552224787, -24.986144339138054]}}, {"type": "Feature", "properties": {"norad_id": 48268, "name": "PLEIADES NEO 3", "group": "resource", "lat": -80.09363321331193, "lon": -175.66044758342323, "alt_km": 632.3083186128297, "timestamp": "2025-12-10T11:33:53.049191+00:00", "meta": {"OBJECT_NAME": "PLEIADES NEO 3", "OBJECT_ID": "2021-034A", "EPOCH": "2025-12-08T17:51:26.688096", "MEAN_MOTION": 14.81674889, "ECCENTRICITY": 0.00013213, "INCLINATION": 97.8951, "RA_OF_ASC_NODE": 55.2426, "ARG_OF_PERICENTER": 96.866, "MEAN_ANOMALY": 263.2703, "EPHEMERIS_TYPE": 0, "CLASSIFICATION_TYPE": "U", "NORAD_CAT_ID": 48268, "ELEMENT_SET_NO": 999, "REV_AT_EPOCH": 24945, "BSTAR": 2.6372942e-05, "MEAN_MOTION_DOT": 1.55e-06, "MEAN_MOTION_DDOT": 0}, "tle": {"line1": "1 48268U 21034A   25342.74405889  .00000155  00000+0  26373-4 0  9994", "line2": "2 48268  97.8951  55.2426 0001321  96.8660 263.2703 14.81674889249458"}}, "geometry": {"type": "Point", "coordinates": [-175.66044758342323, -80.09363321331193]}}, {"type": "Feature", "properties": {"norad_id": 49070, "name": "PLEIADES NEO 4", "group": "resource", "lat": 80.13144279046331, "lon": 4.045053917668275, "alt_km": 615.6751463214741, "timestamp": "2025-12-10T11:33:53.049201+00:00", "meta": {"OBJECT_NAME": "PLEIADES NEO 4", "OBJECT_ID": "2021-073E", "EPOCH": "2025-12-09T14:07:00.443712", "MEAN_MOTION": 14.81679595, "ECCENTRICITY": 0.0001363, "INCLINATION": 97.8947, "RA_OF_ASC_NODE": 56.0703, "ARG_OF_PERICENTER": 89.0853, "MEAN_ANOMALY": 271.0516, "EPHEMERIS_TYPE": 0, "CLASSIFICATION_TYPE": "U", "NORAD_CAT_ID": 49070, "ELEMENT_SET_NO": 999, "REV_AT_EPOCH": 23329, "BSTAR": 7.8728e-05, "MEAN_MOTION_DOT": 5.68e-06, "MEAN_MOTION_DDOT": 0}, "tle": {"line1": "1 49070U 21073E   25343.58819958  .00000568  00000+0  78728-4 0  9997", "line2": "2 49070  97.8947  56.0703 0001363  89.0853 271.0516 14.81679595233299"}}, "geometry": {"type": "Point", "coordinates": [4.045053917668275, 80.13144279046331]}}, {"type": "Feature", "properties": {"norad_id": 49260, "name": "LANDSAT 9", "group": "resource", "lat": -58.95797930586617, "lon": 66.50475505814669, "alt_km": 710.2887470328096, "timestamp": "2025-12-10T11:33:53.049211+00:00", "meta": {"OBJECT_NAME": "LANDSAT 9", "OBJECT_ID": "2021-088A", "EPOCH": "2025-12-10T03:35:57.280128", "MEAN_MOTION": 14.57125887, "ECCENTRICITY": 0.0001113, "INCLINATION": 98.2097, "RA_OF_ASC_NODE": 52.2986, "ARG_OF_PERICENTER": 94.8319, "MEAN_ANOMALY": 265.3006, "EPHEMERIS_TYPE": 0, "CLASSIFICATION_TYPE": "U", "NORAD_CAT_ID": 49260, "ELEMENT_SET_NO": 999, "REV_AT_EPOCH": 22347, "BSTAR": 0.00015938, "MEAN_MOTION_DOT": 6.73e-06, "MEAN_MOTION_DDOT": 0}, "tle": {"line1": "1 49260U 21088A   25344.14996852  .00000673  00000+0  15938-3 0  9996", "line2": "2 49260  98.2097  52.2986 0001113  94.8319 265.3006 14.57125887223478"}}, "geometry": {"type": "Point", "coordinates": [66.50475505814669, -58.95797930586617]}}]}